
STARLINK-4379           
1 53217U 22084AE  25033.61501497  .00000755  00000+0  63343-4 0  9999
2 53217  97.6562  97.1584 0000776 188.6535 171.4676 15.01267309139295
STARLINK-4384           
1 53218U 22084AF  25033.15055670  .00001432  00000+0  11602-3 0  9999
2 53218  97.6558  96.7124 0001116  92.5477 267.5875 15.01280198139742
STARLINK-4373           
1 53219U 22084AG  25033.15216685  .00000010  00000+0  53438-5 0  9991
2 53219  97.6562  96.6851 0000718 103.2232 256.9072 15.01262945139224
STARLINK-4363           
1 53220U 22084AH  25033.15772031  .00000428  00000+0  37945-4 0  9992
2 53220  97.6563  96.6923 0001886  91.7338 268.4103 15.01263329139749
STARLINK-4377           
1 53221U 22084AJ  25033.61690237  .00013685  00000+0  10693-2 0  9999
2 53221  97.6558  97.1429 0000777 131.7726 228.3565 15.01212204139298
STARLINK-4381           
1 53222U 22084AK  25033.58335648  .01291892  00000+0  83894-1 0  9999
2 53222  97.6542  97.1180 0001374  97.3874  63.0957 15.05037046  5813
STARLINK-4354           
1 53223U 22084AL  25033.58335648  .01293097  00000+0  26798-1 0  9999
2 53223  97.6519  98.3352 0001216  98.3045  56.0494 15.43114452  5691
STARLINK-4356           
1 53224U 22084AM  25033.15402196  .00002437  00000+0  19429-3 0  9996
2 53224  97.6564  96.6886 0001576  85.9761 274.1643 15.01254301139229
STARLINK-4358           
1 53225U 22084AN  25033.14475138  .00000327  00000+0  30040-4 0  9991
2 53225  97.6568  96.6773 0001707 205.5561 154.5579 15.01263956139228
STARLINK-4359           
1 53226U 22084AP  25033.14290203  .00000241  00000+0  23346-4 0  9996
2 53226  97.6566  96.6885 0002846 210.4038 149.7022 15.01261440139225
STARLINK-4366           
1 53227U 22084AQ  25033.13197172  .00005729  00000+0  44806-3 0  9996
2 53227  97.6539  96.6829 0003180 182.1506 177.9705 15.01445032139223
STARLINK-4365           
1 53228U 22084AR  25033.61316655  .00001112  00000+0  91124-4 0  9997
2 53228  97.6548  97.1386 0000899 200.0539 160.0650 15.01266163139293
STARLINK-4367           
1 53229U 22084AS  25033.14104955  .00000412  00000+0  36662-4 0  9992
2 53229  97.6560  96.6722 0003264 199.7876 160.3222 15.01265339139228
STARLINK-4364           
1 53230U 22084AT  25033.14502057 -.00002236  00000+0 -16964-3 0  9999
2 53230  97.6567  96.6720 0002264 216.5394 143.5676 15.01242047139224
STARLINK-4370           
1 53231U 22084AU  25033.13735081  .00000892  00000+0  74059-4 0  9998
2 53231  97.6567  96.6686 0002791 182.5292 177.5918 15.01263541139228
STARLINK-4371           
1 53232U 22084AV  25032.40603500 -.00000316  00000+0 -19991-4 0  9995
2 53232  97.6550  95.9458 0004063 176.5226 183.6027 15.01213625139119
STARLINK-4372           
1 53233U 22084AW  25033.13389230  .00000771  00000+0  64646-4 0  9998
2 53233  97.6576  96.6703 0002545 177.4589 182.6649 15.01265582139224
STARLINK-4368           
1 53234U 22084AX  25033.13549957  .00000984  00000+0  81192-4 0  9994
2 53234  97.6577  96.6644 0002354 170.2449 189.8821 15.01265026140231
CSS (WENTIAN)           
1 53239U 22085A   25033.57257173  .00042320  00000+0  53439-3 0  9996
2 53239  41.4659 120.0241 0002655  64.4299 295.6813 15.58776182214949
STARLINK-4056           
1 53242U 22086A   25033.48112877 -.00007857  00000+0 -47561-3 0  9999
2 53242  53.2182 195.7191 0001391  91.8268 268.2883 15.08877910140895
STARLINK-4047           
1 53243U 22086B   25032.45943208  .00000252  00000+0  33938-4 0  9990
2 53243  53.2157 205.0024 0001540  89.7388 270.3780 15.08840221140696
STARLINK-4125           
1 53244U 22086C   25033.47884547  .00000304  00000+0  37203-4 0  9991
2 53244  53.2157 200.8127 0001496  93.8723 266.2441 15.08837878140820
STARLINK-4131           
1 53246U 22086E   25033.47515294  .00000589  00000+0  55112-4 0  9997
2 53246  53.2158 200.7525 0001380  96.1337 263.9813 15.08837905139717
STARLINK-4061           
1 53247U 22086F   25032.50227660  .00000994  00000+0  80572-4 0  9996
2 53247  53.2157 200.3033 0001268  93.2004 266.9134 15.08834777140749
STARLINK-4135           
1 53248U 22086G   25033.48483486  .00002467  00000+0  17311-3 0  9992
2 53248  53.2169 195.8169 0001736  91.5622 268.5569 15.08823965140891
STARLINK-4128           
1 53249U 22086H   25033.42184114  .00002646  00000+0  18435-3 0  9990
2 53249  53.2159 191.0019 0001916  85.4351 274.6860 15.08827274140657
STARLINK-4059           
1 53250U 22086J   25033.42458277 -.00002028  00000+0 -10936-3 0  9990
2 53250  53.2260 190.9867 0000679  52.5414 307.5640 15.08838701140650
STARLINK-4129           
1 53251U 22086K   25033.41352199  .00004225  00000+0  28356-3 0  9990
2 53251  53.2163 191.0297 0001193  91.7273 268.3855 15.08819896140636
STARLINK-4132           
1 53252U 22086L   25033.48346655 -.00000951  00000+0 -41711-4 0  9993
2 53252  53.2123 190.6610 0000498  22.7399 337.3615 15.08809097140663
STARLINK-4133           
1 53253U 22086M   25033.40983405  .00001679  00000+0  12361-3 0  9990
2 53253  53.2150 191.0468 0001512  88.0146 272.1019 15.08829627140635
STARLINK-4134           
1 53254U 22086N   25033.48441038  .00009883  00000+0  63806-3 0  9995
2 53254  53.2146 190.7220 0000983  79.6356 280.4746 15.08846181140669
STARLINK-4142           
1 53255U 22086P   25033.46871788  .00002481  00000+0  17390-3 0  9997
2 53255  53.2142 190.7818 0001121  88.6763 271.4358 15.08840694140646
STARLINK-4147           
1 53256U 22086Q   25033.40617219  .00001440  00000+0  10860-3 0  9998
2 53256  53.2229 191.0693 0001216  73.8152 286.2974 15.08828720140634
STARLINK-4144           
1 53257U 22086R   25033.45767512  .00001159  00000+0  90921-4 0  9990
2 53257  53.2152 190.8307 0001287  94.4548 265.6591 15.08839818140642
STARLINK-4127           
1 53258U 22086S   25033.46503486 -.00002985  00000+0 -16949-3 0  9997
2 53258  53.2132 190.7978 0001364  83.0571 277.0577 15.08844257140644
STARLINK-4140           
1 53259U 22086T   25033.42083756  .00000163  00000+0  28361-4 0  9993
2 53259  53.2153 190.6374 0001459  89.0819 271.0340 15.08841382140641
STARLINK-4136           
1 53260U 22086U   25033.46135522  .00000404  00000+0  43495-4 0  9991
2 53260  53.2116 190.8136 0001034  83.7329 276.3780 15.08837977140647
STARLINK-4062           
1 53261U 22086V   25033.44663338  .00002145  00000+0  15283-3 0  9998
2 53261  53.2153 190.8807 0000954  85.0703 275.0398 15.08839716140649
STARLINK-4085           
1 53262U 22086W   25033.45399587 -.00000116  00000+0  10823-4 0  9995
2 53262  53.2138 190.8468 0001366  93.1660 266.9488 15.08835333140646
STARLINK-4130           
1 53263U 22086X   25031.85321376 -.00000971  00000+0 -42931-4 0  9994
2 53263  53.2179 198.0334 0001526  89.2683 270.8484 15.08826059140402
STARLINK-3950           
1 53264U 22086Y   25033.45031820  .00000875  00000+0  73103-4 0  9991
2 53264  53.2146 190.8635 0002395  95.1490 264.9776 15.08838208140641
STARLINK-4097           
1 53265U 22086Z   25033.43559626 -.00000856  00000+0 -35693-4 0  9992
2 53265  53.2161 190.9301 0001368  68.5814 291.5324 15.08845052140643
STARLINK-4058           
1 53266U 22086AA  25032.44567422  .00000698  00000+0  61949-4 0  9991
2 53266  53.2149 195.3732 0001428  91.3237 268.7919 15.08837210140493
STARLINK-4060           
1 53267U 22086AB  25033.42823497  .00001527  00000+0  11404-3 0  9990
2 53267  53.2174 190.9633 0002066  85.2749 274.8479 15.08843969140646
STARLINK-4109           
1 53268U 22086AC  25033.43191038 -.00001081  00000+0 -49878-4 0  9995
2 53268  53.2160 190.9459 0001132  53.1361 306.9734 15.08827942140649
STARLINK-4057           
1 53269U 22086AD  25033.42179397  .00000535  00000+0  51681-4 0  9995
2 53269  53.2151 180.9909 0001304  91.7224 268.3917 15.08839213140778
STARLINK-4122           
1 53272U 22086AG  25033.35923066  .00000514  00000+0  50378-4 0  9990
2 53272  53.2149 181.2728 0001510  83.6891 276.4273 15.08841212140767
STARLINK-4051           
1 53273U 22086AH  25033.53955430 -.00000029  00000+0  16239-4 0  9991
2 53273  53.2173 180.4625 0001368  88.0883 272.0266 15.08840253140783
STARLINK-4050           
1 53274U 22086AJ  25033.41811603  .00000953  00000+0  77966-4 0  9991
2 53274  53.2150 181.0068 0001616  89.4920 270.6257 15.08841522140773
STARLINK-4179           
1 53275U 22086AK  25032.74099694  .00000128  00000+0  26162-4 0  9991
2 53275  53.2107 184.0499 0002309  82.7680 277.3575 15.08843660140666
STARLINK-4174           
1 53276U 22086AL  25033.54323890  .00002882  00000+0  19906-3 0  9995
2 53276  53.2165 180.4461 0001105  90.2970 269.8148 15.08839049140780
STARLINK-4178           
1 53277U 22086AM  25032.79988809  .00002304  00000+0  16286-3 0  9996
2 53277  53.2151 183.8130 0001269  82.9969 277.1168 15.08831596140674
STARLINK-4180           
1 53278U 22086AN  25033.39971399  .00000529  00000+0  51306-4 0  9990
2 53278  53.2122 181.0908 0001877  84.6007 275.5199 15.08843127140762
STARLINK-4169           
1 53280U 22086AQ  25033.51973864  .00001130  00000+0  89073-4 0  9997
2 53280  53.2174 135.2255 0001311  91.6127 268.5015 15.08839455141424
STARLINK-4164           
1 53282U 22086AS  25033.39237561 -.00002034  00000+0 -10982-3 0  9990
2 53282  53.2146 181.1253 0001427  75.7530 284.3620 15.08819810140769
STARLINK-4175           
1 53283U 22086AT  25033.44754800 -.00004462  00000+0 -26249-3 0  9997
2 53283  53.2161 180.8781 0000837  72.5683 287.5400 15.08834267140772
STARLINK-4173           
1 53285U 22086AV  25033.43649469 -.00001771  00000+0 -93133-4 0  9999
2 53285  53.2126 180.9254 0001228  84.5831 275.5301 15.08873734140762
STARLINK-4165           
1 53286U 22086AW  25033.54688321 -.00000318  00000+0 -18637-5 0  9995
2 53286  53.2154 180.1233 0001494  77.7004 282.4156 15.08836476140626
